start=new Date('2021-09-06T00:00:00.000Z').valueOf();
sats=[{"TLE_LINE1":"1 46066U 20055AR  21248.57274669  .00000895  00000-0  78921-4 0  9990","DECAY_DATE":null,"NORAD_CAT_ID":"46066","TLE_LINE2":"2 46066  53.0543 286.3292 0000970  95.6010 264.5089 15.06407796 61199","GP_ID":"184163164","EPHEMERIS_TYPE":"0","PERIOD":"95.592","EPOCH":"2021-09-05T13:44:45.314016","RCS_SIZE":"LARGE","FILE":"3109348","ARG_OF_PERICENTER":"95.6010","CLASSIFICATION_TYPE":"U","ECCENTRICITY":"0.00009700","APOAPSIS":"547.861","COUNTRY_CODE":"US","MEAN_ANOMALY":"264.5089","OBJECT_ID":"2020-055AR","TIME_SYSTEM":"UTC","MEAN_MOTION_DOT":"0.00000895","MEAN_ELEMENT_THEORY":"SGP4","BSTAR":"0.00007892100000","PERIAPSIS":"546.518","LAUNCH_DATE":"2020-08-07","REF_FRAME":"TEME","MEAN_MOTION":"15.06407796","RA_OF_ASC_NODE":"286.3292","SEMIMAJOR_AXIS":"6925.325","ELEMENT_SET_NO":"999","OBJECT_NAME":"STARLINK-1525","REV_AT_EPOCH":"6119","SITE":"AFETR","MEAN_MOTION_DDOT":"0.0000000000000","OBJECT_TYPE":"PAYLOAD","INCLINATION":"53.0543","CENTER_NAME":"EARTH"},{"PERIAPSIS":"546.539","BSTAR":"0.00007099500000","MEAN_ELEMENT_THEORY":"SGP4","MEAN_MOTION":"15.06407347","RA_OF_ASC_NODE":"286.6169","REF_FRAME":"TEME","LAUNCH_DATE":"2020-08-07","SITE":"AFETR","OBJECT_NAME":"STARLINK-1529","REV_AT_EPOCH":"6119","ELEMENT_SET_NO":"999","SEMIMAJOR_AXIS":"6925.326","CENTER_NAME":"EARTH","INCLINATION":"53.0539","MEAN_MOTION_DDOT":"0.0000000000000","OBJECT_TYPE":"PAYLOAD","NORAD_CAT_ID":"46067","TLE_LINE2":"2 46067  53.0539 286.6169 0000942  94.2557 265.8540 15.06407347 61199","GP_ID":"184139468","DECAY_DATE":null,"TLE_LINE1":"1 46067U 20055AS  21248.51008765  .00000777  00000-0  70995-4 0  9999","EPOCH":"2021-09-05T12:14:31.572960","RCS_SIZE":"LARGE","PERIOD":"95.592","EPHEMERIS_TYPE":"0","COUNTRY_CODE":"US","APOAPSIS":"547.843","CLASSIFICATION_TYPE":"U","ECCENTRICITY":"0.00009420","FILE":"3109252","ARG_OF_PERICENTER":"94.2557","TIME_SYSTEM":"UTC","MEAN_MOTION_DOT":"0.00000777","OBJECT_ID":"2020-055AS","MEAN_ANOMALY":"265.8540"},{"LAUNCH_DATE":"2020-08-07","REF_FRAME":"TEME","RA_OF_ASC_NODE":"286.5683","MEAN_MOTION":"15.06395302","MEAN_ELEMENT_THEORY":"SGP4","BSTAR":"-0.00004349400000","PERIAPSIS":"546.694","MEAN_MOTION_DDOT":"0.0000000000000","OBJECT_TYPE":"PAYLOAD","INCLINATION":"53.0524","CENTER_NAME":"EARTH","ELEMENT_SET_NO":"999","SEMIMAJOR_AXIS":"6925.363","OBJECT_NAME":"STARLINK-1532","REV_AT_EPOCH":"6119","SITE":"AFETR","EPHEMERIS_TYPE":"0","PERIOD":"95.592","EPOCH":"2021-09-05T12:30:27.309888","RCS_SIZE":"LARGE","TLE_LINE1":"1 46068U 20055AT  21248.52114942 -.00000929  00000-0 -43494-4 0  9991","DECAY_DATE":null,"TLE_LINE2":"2 46068  53.0524 286.5683 0000771  89.5979 270.5098 15.06395302 61197","NORAD_CAT_ID":"46068","GP_ID":"184137725","MEAN_ANOMALY":"270.5098","OBJECT_ID":"2020-055AT","TIME_SYSTEM":"UTC","MEAN_MOTION_DOT":"-0.00000929","FILE":"3109252","ARG_OF_PERICENTER":"89.5979","CLASSIFICATION_TYPE":"U","ECCENTRICITY":"0.00007710","APOAPSIS":"547.762","COUNTRY_CODE":"US"},{"MEAN_MOTION":"15.06399827","RA_OF_ASC_NODE":"286.2017","LAUNCH_DATE":"2020-08-07","REF_FRAME":"TEME","BSTAR":"-0.00003621900000","PERIAPSIS":"546.506","MEAN_ELEMENT_THEORY":"SGP4","CENTER_NAME":"EARTH","OBJECT_TYPE":"PAYLOAD","MEAN_MOTION_DDOT":"0.0000000000000","INCLINATION":"53.0532","SITE":"AFETR","SEMIMAJOR_AXIS":"6925.349","ELEMENT_SET_NO":"999","REV_AT_EPOCH":"6121","OBJECT_NAME":"STARLINK-1533","RCS_SIZE":"LARGE","EPOCH":"2021-09-05T14:27:13.929984","EPHEMERIS_TYPE":"0","PERIOD":"95.592","DECAY_DATE":null,"TLE_LINE2":"2 46069  53.0532 286.2017 0001022  87.7601 272.3505 15.06399827 61219","NORAD_CAT_ID":"46069","GP_ID":"184164413","TLE_LINE1":"1 46069U 20055AU  21248.60224456 -.00000821  00000-0 -36219-4 0  9991","MEAN_MOTION_DOT":"-0.00000821","TIME_SYSTEM":"UTC","MEAN_ANOMALY":"272.3505","OBJECT_ID":"2020-055AU","APOAPSIS":"547.922","COUNTRY_CODE":"US","ARG_OF_PERICENTER":"87.7601","FILE":"3109348","ECCENTRICITY":"0.00010220","CLASSIFICATION_TYPE":"U"},{"TLE_LINE1":"1 46070U 20055AV  21248.55064193 -.00000607  00000-0 -21903-4 0  9993","GP_ID":"184139227","TLE_LINE2":"2 46070  53.0532 286.4339 0000833  83.6934 276.4150 15.06395543 61204","NORAD_CAT_ID":"46070","DECAY_DATE":null,"PERIOD":"95.592","EPHEMERIS_TYPE":"0","RCS_SIZE":"LARGE","EPOCH":"2021-09-05T13:12:55.462752","ECCENTRICITY":"0.00008330","CLASSIFICATION_TYPE":"U","ARG_OF_PERICENTER":"83.6934","FILE":"3109252","COUNTRY_CODE":"US","APOAPSIS":"547.804","OBJECT_ID":"2020-055AV","MEAN_ANOMALY":"276.4150","MEAN_MOTION_DOT":"-0.00000607","TIME_SYSTEM":"UTC","MEAN_ELEMENT_THEORY":"SGP4","PERIAPSIS":"546.650","BSTAR":"-0.00002190300000","REF_FRAME":"TEME","LAUNCH_DATE":"2020-08-07","RA_OF_ASC_NODE":"286.4339","MEAN_MOTION":"15.06395543","REV_AT_EPOCH":"6120","OBJECT_NAME":"STARLINK-1536","ELEMENT_SET_NO":"999","SEMIMAJOR_AXIS":"6925.362","SITE":"AFETR","INCLINATION":"53.0532","OBJECT_TYPE":"PAYLOAD","MEAN_MOTION_DDOT":"0.0000000000000","CENTER_NAME":"EARTH"},{"RCS_SIZE":"LARGE","EPOCH":"2021-09-05T13:39:25.820640","EPHEMERIS_TYPE":"0","PERIOD":"95.590","DECAY_DATE":null,"NORAD_CAT_ID":"46071","TLE_LINE2":"2 46071  53.0550 286.3510 0000706 106.3107 253.7960 15.06430980 61201","GP_ID":"184163915","TLE_LINE1":"1 46071U 20055AW  21248.56904885  .00004332  00000-0  30924-3 0  9995","MEAN_MOTION_DOT":"0.00004332","TIME_SYSTEM":"UTC","MEAN_ANOMALY":"253.7960","OBJECT_ID":"2020-055AW","APOAPSIS":"547.608","COUNTRY_CODE":"US","ARG_OF_PERICENTER":"106.3107","FILE":"3109348","ECCENTRICITY":"0.00007060","CLASSIFICATION_TYPE":"U","MEAN_MOTION":"15.06430980","RA_OF_ASC_NODE":"286.3510","LAUNCH_DATE":"2020-08-07","REF_FRAME":"TEME","BSTAR":"0.00030924000000","PERIAPSIS":"546.630","MEAN_ELEMENT_THEORY":"SGP4","CENTER_NAME":"EARTH","OBJECT_TYPE":"PAYLOAD","MEAN_MOTION_DDOT":"0.0000000000000","INCLINATION":"53.0550","SITE":"AFETR","SEMIMAJOR_AXIS":"6925.254","ELEMENT_SET_NO":"999","REV_AT_EPOCH":"6120","OBJECT_NAME":"STARLINK-1538"},{"CLASSIFICATION_TYPE":"U","ECCENTRICITY":"0.00006890","FILE":"3109252","ARG_OF_PERICENTER":"100.6978","COUNTRY_CODE":"US","APOAPSIS":"547.671","OBJECT_ID":"2020-055AX","MEAN_ANOMALY":"259.4089","TIME_SYSTEM":"UTC","MEAN_MOTION_DOT":"-0.00000319","TLE_LINE1":"1 46072U 20055AX  21248.39488520 -.00000319  00000-0 -25366-5 0  9999","TLE_LINE2":"2 46072  53.0533 287.1188 0000689 100.6978 259.4089 15.06406378 61160","NORAD_CAT_ID":"46072","GP_ID":"184138226","DECAY_DATE":null,"PERIOD":"95.592","EPHEMERIS_TYPE":"0","EPOCH":"2021-09-05T09:28:38.081280","RCS_SIZE":"LARGE","OBJECT_NAME":"STARLINK-1539","REV_AT_EPOCH":"6116","SEMIMAJOR_AXIS":"6925.329","ELEMENT_SET_NO":"999","SITE":"AFETR","INCLINATION":"53.0533","MEAN_MOTION_DDOT":"0.0000000000000","OBJECT_TYPE":"PAYLOAD","CENTER_NAME":"EARTH","MEAN_ELEMENT_THEORY":"SGP4","PERIAPSIS":"546.717","BSTAR":"-0.00000253660000","REF_FRAME":"TEME","LAUNCH_DATE":"2020-08-07","MEAN_MOTION":"15.06406378","RA_OF_ASC_NODE":"287.1188"},{"ARG_OF_PERICENTER":"104.6723","FILE":"3109348","ECCENTRICITY":"0.00009080","CLASSIFICATION_TYPE":"U","APOAPSIS":"547.826","COUNTRY_CODE":"US","MEAN_ANOMALY":"255.4367","OBJECT_ID":"2020-055AY","MEAN_MOTION_DOT":"0.00001257","TIME_SYSTEM":"UTC","TLE_LINE1":"1 46073U 20055AY  21248.60962805  .00001257  00000-0  10321-3 0  9990","DECAY_DATE":null,"GP_ID":"184164914","TLE_LINE2":"2 46073  53.0553 286.1662 0000908 104.6723 255.4367 15.06405257 61200","NORAD_CAT_ID":"46073","EPHEMERIS_TYPE":"0","PERIOD":"95.592","RCS_SIZE":"LARGE","EPOCH":"2021-09-05T14:37:51.863520","ELEMENT_SET_NO":"999","SEMIMAJOR_AXIS":"6925.332","REV_AT_EPOCH":"6120","OBJECT_NAME":"STARLINK-1542","SITE":"AFETR","OBJECT_TYPE":"PAYLOAD","MEAN_MOTION_DDOT":"0.0000000000000","INCLINATION":"53.0553","CENTER_NAME":"EARTH","MEAN_ELEMENT_THEORY":"SGP4","BSTAR":"0.00010321000000","PERIAPSIS":"546.569","LAUNCH_DATE":"2020-08-07","REF_FRAME":"TEME","RA_OF_ASC_NODE":"286.1662","MEAN_MOTION":"15.06405257"},{"TLE_LINE2":"2 46074  53.0536 286.2346 0000676  95.5868 264.5199 15.06395212 61193","GP_ID":"184163165","NORAD_CAT_ID":"46074","DECAY_DATE":null,"TLE_LINE1":"1 46074U 20055AZ  21248.59487332 -.00000681  00000-0 -26850-4 0  9993","RCS_SIZE":"LARGE","EPOCH":"2021-09-05T14:16:37.054848","PERIOD":"95.592","EPHEMERIS_TYPE":"0","COUNTRY_CODE":"US","APOAPSIS":"547.696","ECCENTRICITY":"0.00006760","CLASSIFICATION_TYPE":"U","ARG_OF_PERICENTER":"95.5868","FILE":"3109348","MEAN_MOTION_DOT":"-0.00000681","TIME_SYSTEM":"UTC","OBJECT_ID":"2020-055AZ","MEAN_ANOMALY":"264.5199","PERIAPSIS":"546.760","BSTAR":"-0.00002685000000","MEAN_ELEMENT_THEORY":"SGP4","RA_OF_ASC_NODE":"286.2346","MEAN_MOTION":"15.06395212","REF_FRAME":"TEME","LAUNCH_DATE":"2020-08-07","SITE":"AFETR","REV_AT_EPOCH":"6119","OBJECT_NAME":"STARLINK-1549","SEMIMAJOR_AXIS":"6925.363","ELEMENT_SET_NO":"999","CENTER_NAME":"EARTH","INCLINATION":"53.0536","OBJECT_TYPE":"PAYLOAD","MEAN_MOTION_DDOT":"0.0000000000000"},{"COUNTRY_CODE":"US","APOAPSIS":"547.737","CLASSIFICATION_TYPE":"U","ECCENTRICITY":"0.00007780","FILE":"3109348","ARG_OF_PERICENTER":"92.6060","TIME_SYSTEM":"UTC","MEAN_MOTION_DOT":"0.00001472","OBJECT_ID":"2020-055BA","MEAN_ANOMALY":"267.5018","TLE_LINE2":"2 46075  53.0551 286.1201 0000778  92.6060 267.5018 15.06404922 61209","GP_ID":"184163415","NORAD_CAT_ID":"46075","DECAY_DATE":null,"TLE_LINE1":"1 46075U 20055BA  21248.62068574  .00001472  00000-0  11764-3 0  9995","EPOCH":"2021-09-05T14:53:47.247936","RCS_SIZE":"LARGE","PERIOD":"95.592","EPHEMERIS_TYPE":"0","SITE":"AFETR","OBJECT_NAME":"STARLINK-1551","REV_AT_EPOCH":"6120","SEMIMAJOR_AXIS":"6925.333","ELEMENT_SET_NO":"999","CENTER_NAME":"EARTH","INCLINATION":"53.0551","MEAN_MOTION_DDOT":"0.0000000000000","OBJECT_TYPE":"PAYLOAD","PERIAPSIS":"546.660","BSTAR":"0.00011764000000","MEAN_ELEMENT_THEORY":"SGP4","RA_OF_ASC_NODE":"286.1201","MEAN_MOTION":"15.06404922","REF_FRAME":"TEME","LAUNCH_DATE":"2020-08-07"}];
